CAPELLA-11 (ACADIA-1)   
1 57693U 23126A   26188.17760252  .00003317  00000+0  41589-3 0  9992
2 57693  53.0059  98.1326 0002116 116.8038 243.3157 14.84607915155090
CAPELLA-14 (ACADIA-4)   
1 59444U 24066C   26188.29055113  .00009658  00000+0  60539-3 0  9998
2 59444  45.6020 149.3449 0001667 169.4152 190.6769 15.09659639115522
CAPELLA-13 (ACADIA-3)   
1 60419U 24142A   26188.52254851  .00003035  00000+0  35591-3 0  9996
2 60419  53.0055 328.8036 0001247  93.5002 266.6121 14.87657030103439
CAPELLA-15 (ACADIA-5)   
1 60544U 24149CE  26188.16863023  .00002492  00000+0  24888-3 0  9992
2 60544  97.6756 260.5704 0003959  14.9443 345.1892 14.92383555102837
CAPELLA-17 (ACADIA-7)   
1 64583U 25135BH  26187.86116860  .00005280  00000+0  53205-3 0  9994
2 64583  97.7698 301.1922 0003748 287.3419  72.7389 14.91559067 56787
CAPELLA-16 (ACADIA-6)   
1 65318U 25188D   26187.71532992  .00004122  00000+0  39198-3 0  9990
2 65318  97.7376 262.5747 0005066 157.1281 203.0166 14.93988981 46838
CAPELLA-19 (ACADIA-9)   
1 67384U 26004X   26187.98714786  .00003686  00000+0  42122-3 0  9990
2 67384  97.7975 186.0054 0001897  95.2342 264.9091 14.86641894 26211
CAPELLA-18 (ACADIA-8)   
1 67385U 26004Y   26188.46833387  .00001055  00000+0  12493-3 0  9990
2 67385  97.8013 186.6279 0001548  86.8414 273.2979 14.86636226 26299
CAPELLA-20 (ACADIA-10)  
1 68485U 26067BX  26188.35025774  .00004295  00000+0  43142-3 0  9996
2 68485  97.7578 146.3226 0000999 158.4025 201.7236 14.91785520 14730
